     2.11           N: GPS NAV DATA                         RINEX VERSION / TYPE
teqc  2018Dec12     gpsops              20220225 01:04:07UTCPGM / RUN BY / DATE
Linux 2.6.32-573.12.1.x86_64|x86_64|gcc -static|Linux 64|=+ COMMENT
CHPI                                    MARKER NAME         COMMENT
41609M003                               MARKER NUMBER       COMMENT
4164613.9484 -4162456.9866 -2445028.7316                    COMMENT
                                                            COMMENT
This data is provided as a public service by NASA/JPL.      COMMENT
No warranty is expressed or implied regarding suitability   COMMENT
for use.  For further information, contact:                 COMMENT
Dave Stowers, NASA/JPL m/s 238-600                          COMMENT
4800 Oak Grove Drive, Pasadena CA 91109 USA                 COMMENT
                                                            END OF HEADER
21 22  2 24 22  0  0.0 1.585641875863D-04 5.684341886081D-13 0.000000000000D+00
    1.000000000000D+02-5.800000000000D+01 4.570904682241D-09 2.655412982278D+00
   -2.807006239891D-06 2.457353333011D-02 3.153458237648D-06 5.153583257675D+03
    4.248000000000D+05 4.004687070847D-07-2.129070489680D+00 2.384185791016D-07
    9.594614771017D-01 3.145000000000D+02-9.985358931880D-01-7.988904198498D-09
   -2.396528396456D-10 1.000000000000D+00 2.198000000000D+03 0.000000000000D+00
    2.000000000000D+00 0.000000000000D+00-1.024454832077D-08 1.000000000000D+02
    4.176180000000D+05 4.000000000000D+00
 9 22  2 24 22  0  0.0-3.526885993779D-04 1.818989403546D-12 0.000000000000D+00
    7.100000000000D+01-3.656250000000D+00 4.747340602934D-09 2.921661704240D+00
   -1.117587089539D-07 2.234621555544D-03 7.938593626022D-06 5.153610759735D+03
    4.248000000000D+05 1.862645149231D-09 2.557056747106D-02 1.862645149231D-08
    9.545170539124D-01 2.233437500000D+02 1.876603975997D+00-8.020334079107D-09
    2.542963067476D-10 1.000000000000D+00 2.198000000000D+03 0.000000000000D+00
    2.000000000000D+00 0.000000000000D+00 1.396983861923D-09 7.100000000000D+01
    4.176180000000D+05 4.000000000000D+00
26 22  2 24 22  0  0.0 1.860051415861D-04 3.183231456205D-12 0.000000000000D+00
    1.020000000000D+02 7.996875000000D+01 4.956635035173D-09-1.937546116401D+00
    3.872439265251D-06 6.903584580868D-03 9.283423423767D-06 5.153711467743D+03
    4.248000000000D+05 3.725290298462D-08 2.086275429654D+00-9.126961231232D-08
    9.382896482843D-01 1.870000000000D+02 3.724218828777D-01-8.194984211129D-09
   -9.607543049875D-11 1.000000000000D+00 2.198000000000D+03 0.000000000000D+00
    2.000000000000D+00 0.000000000000D+00 6.984919309616D-09 1.020000000000D+02
    4.176180000000D+05 4.000000000000D+00
16 22  2 24 22  0  0.0-4.736124537885D-04-4.661160346586D-12 0.000000000000D+00
    9.100000000000D+01 8.659375000000D+01 4.253748614275D-09-2.877864617013D+00
    4.254281520844D-06 1.278074807487D-02 8.970499038696D-06 5.153613786697D+03
    4.248000000000D+05 0.000000000000D+00 2.228929257290D+00-2.514570951462D-07
    9.700158327101D-01 2.115000000000D+02 7.102634047503D-01-7.731393472143D-09
   -9.500395729616D-11 1.000000000000D+00 2.198000000000D+03 0.000000000000D+00
    2.000000000000D+00 0.000000000000D+00-1.024454832077D-08 9.100000000000D+01
    4.176180000000D+05 4.000000000000D+00
 7 22  2 24 22  0  0.0 3.125597722828D-04 2.501110429876D-12 0.000000000000D+00
    9.100000000000D+01 1.746875000000D+01 4.973778606415D-09-3.768165487675D-01
    1.097097992897D-06 1.558601460420D-02 8.085742592812D-06 5.153685655594D+03
    4.248000000000D+05-2.421438694000D-08 1.097232442604D+00 2.589076757431D-07
    9.508191217758D-01 2.212187500000D+02-2.289157108925D+00-8.401064223760D-09
   -1.896507568581D-10 1.000000000000D+00 2.198000000000D+03 0.000000000000D+00
    2.000000000000D+00 0.000000000000D+00-1.117587089539D-08 9.100000000000D+01
    4.176180000000D+05 4.000000000000D+00
31 22  2 24 22  0  0.0-1.662583090365D-04-1.705302565824D-12 0.000000000000D+00
    9.200000000000D+01 1.631250000000D+01 4.821986569381D-09-8.298550925099D-01
    9.834766387939D-07 1.045779872220D-02 7.886439561844D-06 5.153687969208D+03
    4.248000000000D+05 1.844018697739D-07 1.115364999132D+00-4.470348358154D-08
    9.550347133264D-01 2.182187500000D+02 3.778915960618D-01-8.132481607645D-09
   -1.903650723265D-10 1.000000000000D+00 2.198000000000D+03 0.000000000000D+00
    2.800000000000D+00 0.000000000000D+00-1.350417733192D-08 9.200000000000D+01
    4.176180000000D+05 4.000000000000D+00
 6 22  2 24 22  0  0.0 2.120821736753D-04 1.216449163621D-11 0.000000000000D+00
    8.300000000000D+01-7.103125000000D+01 3.972665477463D-09 6.098088827705D-01
   -3.851950168610D-06 2.686380059458D-03 5.409121513367D-06 5.153674057007D+03
    4.248000000000D+05-2.607703208923D-08-2.046178293391D+00-3.166496753693D-08
    9.862463207065D-01 2.893750000000D+02-9.445643526224D-01-7.973903573662D-09
   -1.760787629587D-10 1.000000000000D+00 2.198000000000D+03 0.000000000000D+00
    2.000000000000D+00 0.000000000000D+00 3.725290298462D-09 8.300000000000D+01
    4.176180000000D+05 4.000000000000D+00
 7 22  2 24 21 59 44.0 3.125625662506D-04 2.501110429876D-12 0.000000000000D+00
    5.500000000000D+01 1.746875000000D+01 4.973778606415D-09-3.791505862867D-01
    1.097097992897D-06 1.558601460420D-02 8.085742592812D-06 5.153685661316D+03
    4.247840000000D+05-2.421438694000D-08 1.097232565489D+00 2.589076757431D-07
    9.508191261645D-01 2.212187500000D+02-2.289156830970D+00-8.401064223760D-09
   -1.896507568581D-10 1.000000000000D+00 2.198000000000D+03 0.000000000000D+00
    2.000000000000D+00 0.000000000000D+00-1.117587089539D-08 5.500000000000D+01
    4.192860000000D+05 4.000000000000D+00
30 22  2 24 22  0  0.0-5.153631791472D-04-2.273736754432D-12 0.000000000000D+00
    1.570000000000D+02 1.450000000000D+01 5.203788187237D-09-3.342426044204D-01
    8.232891559601D-07 5.542406812310D-03 7.836148142815D-06 5.153571968079D+03
    4.248000000000D+05 5.587935447693D-08 1.110222356395D+00 1.136213541031D-07
    9.359761018587D-01 2.147500000000D+02-2.739770453408D+00-8.354633718315D-09
   -2.050085394286D-10 1.000000000000D+00 2.198000000000D+03 0.000000000000D+00
    2.000000000000D+00 0.000000000000D+00 3.725290298462D-09 1.570000000000D+02
    4.194780000000D+05 4.000000000000D+00
 8 22  2 24 22  0  0.0-5.748914554715D-05-1.477928890381D-12 0.000000000000D+00
    8.500000000000D+01 6.756250000000D+01 4.565190158494D-09 2.547192986846D+00
    3.501772880554D-06 7.339946576394D-03 4.390254616737D-06 5.153727491379D+03
    4.248000000000D+05-1.788139343262D-07-3.117624304720D+00 4.842877388000D-08
    9.648885081879D-01 2.980625000000D+02 1.132614890871D-01-8.145696443810D-09
    4.785913638228D-11 1.000000000000D+00 2.198000000000D+03 0.000000000000D+00
    2.800000000000D+00 0.000000000000D+00 5.122274160385D-09 8.500000000000D+01
    4.232880000000D+05 4.000000000000D+00
11 22  2 24 22  0  0.0-7.875915616751D-05 1.102762325900D-11 0.000000000000D+00
    1.620000000000D+02-8.528125000000D+01 4.469471885730D-09 2.459544713681D+00
   -4.399567842484D-06 2.749200211838D-04 5.150213837624D-06 5.153778472900D+03
    4.248000000000D+05-1.303851604462D-08-1.994352593248D+00 4.656612873077D-08
    9.619699866198D-01 2.814375000000D+02 2.818193993800D+00-8.220342410257D-09
   -1.532206679701D-10 1.000000000000D+00 2.198000000000D+03 0.000000000000D+00
    1.280000000000D+02 6.300000000000D+01-8.847564458847D-09 1.620000000000D+02
    4.241280000000D+05 4.000000000000D+00
 7 22  2 24 23 59 44.0 3.125802613795D-04 2.501110429876D-12 0.000000000000D+00
    5.600000000000D+01 1.078125000000D+01 4.935919886590D-09 6.710218019972D-01
    6.891787052155D-07 1.558515836950D-02 8.104369044304D-06 5.153684057236D+03
    4.319840000000D+05-2.700835466385D-07 1.097173176867D+00 1.452863216400D-07
    9.508175476759D-01 2.209687500000D+02-2.289152218390D+00-8.315703525287D-09
   -3.618007847406D-10 1.000000000000D+00 2.198000000000D+03 0.000000000000D+00
    2.000000000000D+00 0.000000000000D+00-1.117587089539D-08 5.600000000000D+01
    4.248180000000D+05 4.000000000000D+00
 3 22  2 25  0  0  0.0-1.367880031466D-04-1.762145984685D-11 0.000000000000D+00
    1.810000000000D+02-8.056250000000D+01 4.161244761119D-09 1.966385549451D-01
   -4.183501005173D-06 3.885502344929D-03 8.614733815193D-06 5.153676368713D+03
    4.320000000000D+05 3.725290298462D-09-1.002633845644D+00 8.009374141693D-08
    9.725711731617D-01 2.192187500000D+02 9.531301944069D-01-7.858541625516D-09
    1.128618440060D-10 1.000000000000D+00 2.198000000000D+03 0.000000000000D+00
    2.800000000000D+00 0.000000000000D+00 1.862645149231D-09 1.810000000000D+02
    4.248180000000D+05 4.000000000000D+00
 9 22  2 25  0  0  0.0-3.526760265231D-04 1.818989403546D-12 0.000000000000D+00
    7.200000000000D+01-7.843750000000D+00 4.756983861758D-09-2.311276329342D+00
   -4.451721906662D-07 2.233828883618D-03 8.188188076019D-06 5.153612224579D+03
    4.320000000000D+05 7.450580596924D-09 2.551283779781D-02 2.421438694000D-08
    9.545188606162D-01 2.189375000000D+02 1.876577048064D+00-8.025334287386D-09
    2.507247294057D-10 1.000000000000D+00 2.198000000000D+03 0.000000000000D+00
    2.000000000000D+00 0.000000000000D+00 1.396983861923D-09 7.200000000000D+01
    4.248180000000D+05 4.000000000000D+00
 4 22  2 25  0  0  0.0-1.875101588666D-04 2.387423592154D-12 0.000000000000D+00
    2.180000000000D+02-5.781250000000D+00 4.601620247382D-09 3.118682951240D+00
   -2.849847078323D-07 1.720774569549D-03 8.104369044304D-06 5.153644987106D+03
    4.320000000000D+05-9.313225746155D-09 7.852583786491D-02-4.470348358154D-08
    9.615202446405D-01 2.239375000000D+02-3.050795545812D+00-7.923544333140D-09
    2.832260832175D-10 1.000000000000D+00 2.198000000000D+03 0.000000000000D+00
    2.000000000000D+00 0.000000000000D+00-4.190951585770D-09 7.300000000000D+02
    4.248180000000D+05 4.000000000000D+00
